STARLINK-34054          
1 64141U 25111U   26189.19296457  .00014888  00000+0  54906-3 0  9990
2 64141  43.0021 117.2576 0001432 258.6454 101.4237 15.27603281 63890
STARLINK-34195          
1 64142U 25111V   26189.50832065  .00015531  00000+0  57241-3 0  9998
2 64142  42.9972 115.3268 0001052 261.5128  98.5605 15.27597915 63947
STARLINK-34133          
1 64143U 25111W   26189.50446458  .00011905  00000+0  44131-3 0  9991
2 64143  43.0026 115.2957 0000847 262.8208  97.2548 15.27590672 63943
STARLINK-34181          
1 64144U 25111X   26189.91862284  .00019301  00000+0  70831-3 0  9990
2 64144  43.0011 113.2433 0001055 279.1440  80.9292 15.27615521 64000
STARLINK-34186          
1 64145U 25111Y   26189.92761641  .00021371  00000+0  78362-3 0  9994
2 64145  42.9988 113.3109 0001036 249.1844 110.8896 15.27591155 64006
STARLINK-34314          
1 64146U 25112A   26189.68955749  .00005216  00000+0  36503-3 0  9994
2 64146  97.2845 238.9524 0001228 114.4237 245.7119 15.05658566 61515
STARLINK-33926          
1 64147U 25112B   26189.66465082  .00005266  00000+0  36853-3 0  9992
2 64147  97.2850 238.9880 0002300 128.6294 231.5140 15.05658158 61513
STARLINK-34213          
1 64148U 25112C   26189.63139695  .00005015  00000+0  35113-3 0  9998
2 64148  97.2839 238.8783 0000751 126.9936 233.1361 15.05664500 61504
STARLINK-33924          
1 64149U 25112D   26189.63969724  .00004276  00000+0  29995-3 0  9992
2 64149  97.2827 238.8697 0001426 101.1254 259.0134 15.05662936 61500
STARLINK-34209          
1 64150U 25112E   26189.72278221  .00003780  00000+0  26561-3 0  9994
2 64150  97.2826 239.0627 0003197 110.8859 249.2712 15.05665748 61521
STARLINK-34338          
1 64151U 25112F   26189.64802276  .00004314  00000+0  30258-3 0  9991
2 64151  97.2832 239.0118 0002363 103.5986 256.5505 15.05663677 61517
STARLINK-34348          
1 64152U 25112G   26189.68125761  .00005262  00000+0  36826-3 0  9993
2 64152  97.2850 238.9662 0001183 107.5420 252.5937 15.05654776 61511
STARLINK-34345          
1 64153U 25112H   26189.60647323  .00002596  00000+0  18372-3 0  9992
2 64153  97.2837 238.9168 0001172 121.9512 238.1830 15.05662720 61507
STARLINK-33945          
1 64154U 25112J   26189.73168899  .00004594  00000+0  32198-3 0  9995
2 64154  97.2817 247.5347 0000941  87.9339 272.1997 15.05660459 62074
STARLINK-34346          
1 64155U 25112K   26189.72557207  .00005960  00000+0  41651-3 0  9992
2 64155  97.2839 239.0654 0001797 104.8576 255.2851 15.05660109 61520
STARLINK-34277          
1 64156U 25112L   26189.62585648  .00004945  00000+0  34626-3 0  9998
2 64156  97.2843 238.8958 0001590 113.0659 247.0736 15.05665983 61509
STARLINK-34166          
1 64158U 25112N   26189.64248268  .00004378  00000+0  30707-3 0  9992
2 64158  97.2830 238.8720 0001814 144.0205 216.1145 15.05658819 61505
STARLINK-34344          
1 64159U 25112P   26189.63416340  .00004049  00000+0  28434-3 0  9999
2 64159  97.2829 238.8876 0001801 147.4559 212.6780 15.05653541 61504
STARLINK-34339          
1 64160U 25112Q   26189.68400747  .00002091  00000+0  14870-3 0  9994
2 64160  97.2850 238.9713 0001579 117.6889 242.4499 15.05661069 61511
STARLINK-34341          
1 64161U 25112R   26189.73385722  .00005536  00000+0  38707-3 0  9998
2 64161  97.2847 239.0574 0002064 110.1087 250.0363 15.05669337 61525
STARLINK-34317          
1 64162U 25112S   26189.71726388  .00005063  00000+0  35444-3 0  9994
2 64162  97.2831 239.0779 0001345 114.9841 245.1527 15.05658855 61527
STARLINK-34340          
1 64163U 25112T   26189.62863023  .00005393  00000+0  37727-3 0  9995
2 64163  97.2831 238.8918 0001077 147.4819 212.6476 15.05660561 61505
STARLINK-34263          
1 64164U 25112U   26189.68677693  .00002628  00000+0  18589-3 0  9991
2 64164  97.2837 238.9669 0001957 106.1089 254.0354 15.05662874 61519
STARLINK-33793          
1 64165U 25112V   26189.67846913  .00017302  00000+0  11987-2 0  9993
2 64165  97.2860 238.9802 0001565  79.4528 280.6876 15.05696369 61510
STARLINK-34313          
1 64166U 25112W   26189.67018816  .00005994  00000+0  41892-3 0  9990
2 64166  97.2851 238.9916 0001550 115.4994 244.6394 15.05658796 61516
STARLINK-34309          
1 64167U 25112X   26189.72832511  .00004546  00000+0  31864-3 0  9993
2 64167  97.2838 239.0652 0001577  95.9165 264.2242 15.05664321 61524
STARLINK-34303          
1 64168U 25112Y   26189.78647027  .00000405  00000+0  31942-4 0  9994
2 64168  97.2834 239.1406 0001281 100.1698 259.9674 15.05657043 61535
STARLINK-34175          
1 64169U 25112Z   26189.63693302  .00004387  00000+0  30768-3 0  9993
2 64169  97.2826 238.8797 0000934 107.2323 252.9007 15.05660092 61501
STARLINK-34177          
1 64170U 25113A   26189.16822180  .00014832  00000+0  48815-3 0  9990
2 64170  53.1581 250.6295 0001543  74.1159 286.0012 15.31739806 63520
STARLINK-34228          
1 64171U 25113B   26189.80671873  .00014024  00000+0  46257-3 0  9994
2 64171  53.1581 247.4984 0001625  71.4800 288.6378 15.31717262 63620
