OBJECT_NAME,OBJECT_ID,EPOCH,MEAN_MOTION,ECCENTRICITY,INCLINATION,RA_OF_ASC_NODE,ARG_OF_PERICENTER,MEAN_ANOMALY,EPHEMERIS_TYPE,CLASSIFICATION_TYPE,NORAD_CAT_ID,ELEMENT_SET_NO,REV_AT_EPOCH,BSTAR,MEAN_MOTION_DOT,MEAN_MOTION_DDOT
STARLINK-34054,2025-111U,2026-07-08T04:37:52.138848,15.27603281,.00014329,43.0021,117.2576,258.6454,101.4237,0,U,64141,999,6389,.54906223E-3,.14888E-3,0
STARLINK-34195,2025-111V,2026-07-08T12:11:58.904160,15.27597915,.00010521,42.9972,115.3268,261.5128,98.5605,0,U,64142,999,6394,.57241259E-3,.15531E-3,0
STARLINK-34133,2025-111W,2026-07-08T12:06:25.739712,15.27590672,.00008475,43.0026,115.2957,262.8208,97.2548,0,U,64143,999,6394,.44131441E-3,.11905E-3,0
STARLINK-34181,2025-111X,2026-07-08T22:02:49.013376,15.27615521,.00010555,43.0011,113.2433,279.1440,80.9292,0,U,64144,999,6400,.7083067E-3,.19301E-3,0
STARLINK-34186,2025-111Y,2026-07-08T22:15:46.057824,15.27591155,.00010367,42.9988,113.3109,249.1844,110.8896,0,U,64145,999,6400,.78361963E-3,.21371E-3,0
STARLINK-34314,2025-112A,2026-07-08T16:32:57.767136,15.05658566,.00012289,97.2845,238.9524,114.4237,245.7119,0,U,64146,999,6151,.36503425E-3,.5216E-4,0
STARLINK-33926,2025-112B,2026-07-08T15:57:05.830848,15.05658158,.00023003,97.2850,238.9880,128.6294,231.5140,0,U,64147,999,6151,.36852758E-3,.5266E-4,0
STARLINK-34213,2025-112C,2026-07-08T15:09:12.696480,15.05664500,.00007517,97.2839,238.8783,126.9936,233.1361,0,U,64148,999,6150,.35113218E-3,.5015E-4,0
STARLINK-33924,2025-112D,2026-07-08T15:21:09.841536,15.05662936,.00014262,97.2827,238.8697,101.1254,259.0134,0,U,64149,999,6150,.29995312E-3,.4276E-4,0
STARLINK-34209,2025-112E,2026-07-08T17:20:48.382944,15.05665748,.00031977,97.2826,239.0627,110.8859,249.2712,0,U,64150,999,6152,.26560782E-3,.378E-4,0
STARLINK-34338,2025-112F,2026-07-08T15:33:09.166464,15.05663677,.00023636,97.2832,239.0118,103.5986,256.5505,0,U,64151,999,6151,.30257574E-3,.4314E-4,0
STARLINK-34348,2025-112G,2026-07-08T16:21:00.657504,15.05654776,.00011831,97.2850,238.9662,107.5420,252.5937,0,U,64152,999,6151,.36826381E-3,.5262E-4,0
STARLINK-34345,2025-112H,2026-07-08T14:33:19.287072,15.05662720,.00011725,97.2837,238.9168,121.9512,238.1830,0,U,64153,999,6150,.18371816E-3,.2596E-4,0
STARLINK-33945,2025-112J,2026-07-08T17:33:37.928736,15.05660459,.00009415,97.2817,247.5347,87.9339,272.1997,0,U,64154,999,6207,.32198455E-3,.4594E-4,0
STARLINK-34346,2025-112K,2026-07-08T17:24:49.426848,15.05660109,.00017975,97.2839,239.0654,104.8576,255.2851,0,U,64155,999,6152,.41650913E-3,.596E-4,0
STARLINK-34277,2025-112L,2026-07-08T15:01:13.999872,15.05665983,.00015905,97.2843,238.8958,113.0659,247.0736,0,U,64156,999,6150,.34626165E-3,.4945E-4,0
STARLINK-34166,2025-112N,2026-07-08T15:25:10.503552,15.05658819,.00018143,97.2830,238.8720,144.0205,216.1145,0,U,64158,999,6150,.30707134E-3,.4378E-4,0
STARLINK-34344,2025-112P,2026-07-08T15:13:11.717760,15.05653541,.00018016,97.2829,238.8876,147.4559,212.6780,0,U,64159,999,6150,.28433593E-3,.4049E-4,0
STARLINK-34339,2025-112Q,2026-07-08T16:24:58.245408,15.05661069,.00015795,97.2850,238.9713,117.6889,242.4499,0,U,64160,999,6151,.14870423E-3,.2091E-4,0
STARLINK-34341,2025-112R,2026-07-08T17:36:45.263808,15.05669337,.0002064,97.2847,239.0574,110.1087,250.0363,0,U,64161,999,6152,.38707407E-3,.5536E-4,0
STARLINK-34317,2025-112S,2026-07-08T17:12:51.599232,15.05658855,.00013455,97.2831,239.0779,114.9841,245.1527,0,U,64162,999,6152,.35444418E-3,.5063E-4,0
STARLINK-34340,2025-112T,2026-07-08T15:05:13.651872,15.05660561,.00010779,97.2831,238.8918,147.4819,212.6476,0,U,64163,999,6150,.37727161E-3,.5393E-4,0
STARLINK-34263,2025-112U,2026-07-08T16:28:57.526752,15.05662874,.00019573,97.2837,238.9669,106.1089,254.0354,0,U,64164,999,6151,.18588945E-3,.2628E-4,0
STARLINK-33793,2025-112V,2026-07-08T16:16:59.732832,15.05696369,.00015654,97.2860,238.9802,79.4528,280.6876,0,U,64165,999,6151,.11986772E-2,.17302E-3,0
STARLINK-34313,2025-112W,2026-07-08T16:05:04.257024,15.05658796,.00015509,97.2851,238.9916,115.4994,244.6394,0,U,64166,999,6151,.41891809E-3,.5994E-4,0
STARLINK-34309,2025-112X,2026-07-08T17:28:47.289504,15.05664321,.00015779,97.2838,239.0652,95.9165,264.2242,0,U,64167,999,6152,.31863671E-3,.4546E-4,0
STARLINK-34303,2025-112Y,2026-07-08T18:52:31.031328,15.05657043,.00012817,97.2834,239.1406,100.1698,259.9674,0,U,64168,999,6153,.31942358E-4,.405E-5,0
STARLINK-34175,2025-112Z,2026-07-08T15:17:11.012928,15.05660092,.0000934,97.2826,238.8797,107.2323,252.9007,0,U,64169,999,6150,.30768026E-3,.4387E-4,0
STARLINK-34177,2025-113A,2026-07-08T04:02:14.363520,15.31739806,.00015434,53.1581,250.6295,74.1159,286.0012,0,U,64170,999,6352,.48814795E-3,.14832E-3,0
STARLINK-34228,2025-113B,2026-07-08T19:21:40.498272,15.31717262,.00016258,53.1581,247.4984,71.4800,288.6378,0,U,64171,999,6362,.46256722E-3,.14024E-3,0
